CCSDS_OMM_VERS = 2.0
CREATION_DATE  = 
ORIGINATOR     = 

OBJECT_NAME    = AQUA
OBJECT_ID      = 2002-022A
CENTER_NAME    = EARTH
REF_FRAME      = TEME
TIME_SYSTEM    = UTC
MEAN_ELEMENT_THEORY = SGP/SGP4

EPOCH          = 2026-03-24T12:53:15.033984
MEAN_MOTION    = 14.62009563
ECCENTRICITY   = .0000959
INCLINATION    = 98.4199
RA_OF_ASC_NODE = 51.1751
ARG_OF_PERICENTER = 116.9139
MEAN_ANOMALY   = 308.9932

EPHEMERIS_TYPE = 0
CLASSIFICATION_TYPE = U
NORAD_CAT_ID   = 27424
ELEMENT_SET_NO = 999
REV_AT_EPOCH   = 27090
BSTAR          = .20774E-3
MEAN_MOTION_DOT = .992E-5
MEAN_MOTION_DDOT = 0

CCSDS_OMM_VERS = 2.0
CREATION_DATE  = 
ORIGINATOR     = 

OBJECT_NAME    = CZ-4B R/B
OBJECT_ID      = 2002-024C
CENTER_NAME    = EARTH
REF_FRAME      = TEME
TIME_SYSTEM    = UTC
MEAN_ELEMENT_THEORY = SGP/SGP4

EPOCH          = 2026-03-24T10:07:02.619840
MEAN_MOTION    = 14.14550142
ECCENTRICITY   = .0049723
INCLINATION    = 98.8807
RA_OF_ASC_NODE = 136.7520
ARG_OF_PERICENTER = 342.3709
MEAN_ANOMALY   = 28.0322

EPHEMERIS_TYPE = 0
CLASSIFICATION_TYPE = U
NORAD_CAT_ID   = 27432
ELEMENT_SET_NO = 999
REV_AT_EPOCH   = 23132
BSTAR          = .38012E-4
MEAN_MOTION_DOT = .29E-6
MEAN_MOTION_DDOT = 0

CCSDS_OMM_VERS = 2.0
CREATION_DATE  = 
ORIGINATOR     = 

OBJECT_NAME    = MIDORI II (ADEOS-II)
OBJECT_ID      = 2002-056A
CENTER_NAME    = EARTH
REF_FRAME      = TEME
TIME_SYSTEM    = UTC
MEAN_ELEMENT_THEORY = SGP/SGP4

EPOCH          = 2026-03-24T08:45:04.610016
MEAN_MOTION    = 14.29295687
ECCENTRICITY   = .0000973
INCLINATION    = 98.7794
RA_OF_ASC_NODE = 41.9459
ARG_OF_PERICENTER = 26.4579
MEAN_ANOMALY   = 333.6651

EPHEMERIS_TYPE = 0
CLASSIFICATION_TYPE = U
NORAD_CAT_ID   = 27597
ELEMENT_SET_NO = 999
REV_AT_EPOCH   = 21239
BSTAR          = .14061E-3
MEAN_MOTION_DOT = .312E-5
MEAN_MOTION_DDOT = 0

CCSDS_OMM_VERS = 2.0
CREATION_DATE  = 
ORIGINATOR     = 

OBJECT_NAME    = H-2A R/B
OBJECT_ID      = 2002-056E
CENTER_NAME    = EARTH
REF_FRAME      = TEME
TIME_SYSTEM    = UTC
MEAN_ELEMENT_THEORY = SGP/SGP4

EPOCH          = 2026-03-24T10:36:35.007840
MEAN_MOTION    = 14.33769990
ECCENTRICITY   = .007124
INCLINATION    = 98.3228
RA_OF_ASC_NODE = 43.2483
ARG_OF_PERICENTER = 117.1498
MEAN_ANOMALY   = 354.2662

EPHEMERIS_TYPE = 0
CLASSIFICATION_TYPE = U
NORAD_CAT_ID   = 27601
ELEMENT_SET_NO = 999
REV_AT_EPOCH   = 21622
BSTAR          = .1152E-3
MEAN_MOTION_DOT = .288E-5
MEAN_MOTION_DDOT = 0

CCSDS_OMM_VERS = 2.0
CREATION_DATE  = 
ORIGINATOR     = 

OBJECT_NAME    = CZ-4B R/B
OBJECT_ID      = 2003-049C
CENTER_NAME    = EARTH
REF_FRAME      = TEME
TIME_SYSTEM    = UTC
MEAN_ELEMENT_THEORY = SGP/SGP4

EPOCH          = 2026-03-24T10:38:49.759008
MEAN_MOTION    = 14.55032999
ECCENTRICITY   = .0048011
INCLINATION    = 98.6892
RA_OF_ASC_NODE = 78.9289
ARG_OF_PERICENTER = 185.3231
MEAN_ANOMALY   = 174.7461

EPHEMERIS_TYPE = 0
CLASSIFICATION_TYPE = U
NORAD_CAT_ID   = 28059
ELEMENT_SET_NO = 999
REV_AT_EPOCH   = 18874
BSTAR          = .94636E-4
MEAN_MOTION_DOT = .362E-5
MEAN_MOTION_DDOT = 0

CCSDS_OMM_VERS = 2.0
CREATION_DATE  = 
ORIGINATOR     = 

OBJECT_NAME    = CZ-2C R/B
OBJECT_ID      = 2004-012C
CENTER_NAME    = EARTH
REF_FRAME      = TEME
TIME_SYSTEM    = UTC
MEAN_ELEMENT_THEORY = SGP/SGP4

EPOCH          = 2026-03-24T10:32:52.010304
MEAN_MOTION    = 15.66289055
ECCENTRICITY   = .0012999
INCLINATION    = 97.7187
RA_OF_ASC_NODE = 150.1474
ARG_OF_PERICENTER = 249.4947
MEAN_ANOMALY   = 110.4917

EPHEMERIS_TYPE = 0
CLASSIFICATION_TYPE = U
NORAD_CAT_ID   = 28222
ELEMENT_SET_NO = 999
REV_AT_EPOCH   = 20658
BSTAR          = .52091E-3
MEAN_MOTION_DOT = .54128E-3
MEAN_MOTION_DDOT = 0

CCSDS_OMM_VERS = 2.0
CREATION_DATE  = 
ORIGINATOR     = 

OBJECT_NAME    = SL-16 R/B
OBJECT_ID      = 2004-021B
CENTER_NAME    = EARTH
REF_FRAME      = TEME
TIME_SYSTEM    = UTC
MEAN_ELEMENT_THEORY = SGP/SGP4

EPOCH          = 2026-03-24T09:03:26.229024
MEAN_MOTION    = 14.14593458
ECCENTRICITY   = .0004746
INCLINATION    = 71.0003
RA_OF_ASC_NODE = 201.6690
ARG_OF_PERICENTER = 351.8805
MEAN_ANOMALY   = 8.2240

EPHEMERIS_TYPE = 0
CLASSIFICATION_TYPE = U
NORAD_CAT_ID   = 28353
ELEMENT_SET_NO = 999
REV_AT_EPOCH   = 12491
BSTAR          = .34667E-4
MEAN_MOTION_DOT = .19E-6
MEAN_MOTION_DDOT = 0

CCSDS_OMM_VERS = 2.0
CREATION_DATE  = 
ORIGINATOR     = 

OBJECT_NAME    = CZ-4B R/B
OBJECT_ID      = 2004-035C
CENTER_NAME    = EARTH
REF_FRAME      = TEME
TIME_SYSTEM    = UTC
MEAN_ELEMENT_THEORY = SGP/SGP4

EPOCH          = 2026-03-24T08:53:38.816160
MEAN_MOTION    = 15.29314222
ECCENTRICITY   = .002999
INCLINATION    = 97.3476
RA_OF_ASC_NODE = 117.4380
ARG_OF_PERICENTER = 276.7126
MEAN_ANOMALY   = 83.0701

EPHEMERIS_TYPE = 0
CLASSIFICATION_TYPE = U
NORAD_CAT_ID   = 28415
ELEMENT_SET_NO = 999
REV_AT_EPOCH   = 18215
BSTAR          = .27313E-3
MEAN_MOTION_DOT = .7794E-4
MEAN_MOTION_DDOT = 0

CCSDS_OMM_VERS = 2.0
CREATION_DATE  = 
ORIGINATOR     = 

OBJECT_NAME    = CZ-2C R/B
OBJECT_ID      = 2004-046B
CENTER_NAME    = EARTH
REF_FRAME      = TEME
TIME_SYSTEM    = UTC
MEAN_ELEMENT_THEORY = SGP/SGP4

EPOCH          = 2026-03-24T11:46:55.913088
MEAN_MOTION    = 14.26997125
ECCENTRICITY   = .014051
INCLINATION    = 98.1977
RA_OF_ASC_NODE = 357.5529
ARG_OF_PERICENTER = 110.9302
MEAN_ANOMALY   = 250.6984

EPHEMERIS_TYPE = 0
CLASSIFICATION_TYPE = U
NORAD_CAT_ID   = 28480
ELEMENT_SET_NO = 999
REV_AT_EPOCH   = 11061
BSTAR          = .6722E-4
MEAN_MOTION_DOT = .142E-5
MEAN_MOTION_DDOT = 0

CCSDS_OMM_VERS = 2.0
CREATION_DATE  = 
ORIGINATOR     = 

OBJECT_NAME    = ARIANE 5 R/B
OBJECT_ID      = 2004-049H
CENTER_NAME    = EARTH
REF_FRAME      = TEME
TIME_SYSTEM    = UTC
MEAN_ELEMENT_THEORY = SGP/SGP4

EPOCH          = 2026-03-24T10:53:06.947232
MEAN_MOTION    = 14.85291202
ECCENTRICITY   = .0083044
INCLINATION    = 98.2649
RA_OF_ASC_NODE = 252.4656
ARG_OF_PERICENTER = 303.7000
MEAN_ANOMALY   = 55.6317

EPHEMERIS_TYPE = 0
CLASSIFICATION_TYPE = U
NORAD_CAT_ID   = 28499
ELEMENT_SET_NO = 999
REV_AT_EPOCH   = 14798
BSTAR          = .94026E-4
MEAN_MOTION_DOT = .793E-5
MEAN_MOTION_DDOT = 0

CCSDS_OMM_VERS = 2.0
CREATION_DATE  = 
ORIGINATOR     = 

OBJECT_NAME    = CZ-2D R/B
OBJECT_ID      = 2005-024B
CENTER_NAME    = EARTH
REF_FRAME      = TEME
TIME_SYSTEM    = UTC
MEAN_ELEMENT_THEORY = SGP/SGP4

EPOCH          = 2026-03-24T12:27:31.425408
MEAN_MOTION    = 15.61482287
ECCENTRICITY   = .0003169
INCLINATION    = 97.3589
RA_OF_ASC_NODE = 99.2238
ARG_OF_PERICENTER = 0.8881
MEAN_ANOMALY   = 359.2382

EPHEMERIS_TYPE = 0
CLASSIFICATION_TYPE = U
NORAD_CAT_ID   = 28738
ELEMENT_SET_NO = 999
REV_AT_EPOCH   = 14209
BSTAR          = .50784E-3
MEAN_MOTION_DOT = .43463E-3
MEAN_MOTION_DDOT = 0

CCSDS_OMM_VERS = 2.0
CREATION_DATE  = 
ORIGINATOR     = 

OBJECT_NAME    = ALOS (DAICHI)
OBJECT_ID      = 2006-002A
CENTER_NAME    = EARTH
REF_FRAME      = TEME
TIME_SYSTEM    = UTC
MEAN_ELEMENT_THEORY = SGP/SGP4

EPOCH          = 2026-03-24T09:52:36.002784
MEAN_MOTION    = 14.69853326
ECCENTRICITY   = .0000726
INCLINATION    = 98.1242
RA_OF_ASC_NODE = 39.2957
ARG_OF_PERICENTER = 97.0776
MEAN_ANOMALY   = 263.0512

EPHEMERIS_TYPE = 0
CLASSIFICATION_TYPE = U
NORAD_CAT_ID   = 28931
ELEMENT_SET_NO = 999
REV_AT_EPOCH   = 7564
BSTAR          = .23579E-3
MEAN_MOTION_DOT = .136E-4
MEAN_MOTION_DDOT = 0

